NORAD_CAT_ID,OBJECT_NAME,OBJECT_TYPE,EPOCH,MEAN_MOTION,ECCENTRICITY,INCLINATION,RA_OF_ASC_NODE,ARG_OF_PERICENTER,MEAN_ANOMALY,BSTAR,MEAN_MOTION_DOT,MEAN_MOTION_DDOT,TLE_LINE0,TLE_LINE1,TLE_LINE2,SEMIMAJOR_AXIS,PERIOD,APOGEE,PERIGEE,DECAYED
49174.0,STARLINK-3047,PAYLOAD,2024-03-19 00:09:43,15.03112717,0.0003346,69.9976,289.0129,240.1643,119.9186,0.00037873,5.028e-05,0.0,0 STARLINK-3047,1 49174U 21082AW  24079.00675196  .00005028  00000-0  37873-3 0  9990,2 49174  69.9976 289.0129 0003346 240.1643 119.9186 15.03112717139758,6935.442,95.801,559.628,554.986,0.0
49174.0,STARLINK-3047,PAYLOAD,2024-03-20 14:29:35,15.03134741,0.0003382,69.9969,284.9559,235.1633,124.9211,0.00050537,6.747e-05,0.0,0 STARLINK-3047,1 49174U 21082AW  24080.60388296  .00006747  00000-0  50537-3 0  9991,2 49174  69.9969 284.9559 0003382 235.1633 124.9211 15.03134741139996,6935.374,95.8,559.585,554.894,0.0
49174.0,STARLINK-3047,PAYLOAD,2024-03-20 20:52:54,15.03138575,0.0003367,69.9969,284.2796,235.389,124.6954,0.0005272,7.044e-05,0.0,0 STARLINK-3047,1 49174U 21082AW  24080.87006950  .00007044  00000-0  52720-3 0  9991,2 49174  69.9969 284.2796 0003367 235.3890 124.6954 15.03138575140039,6935.362,95.8,559.563,554.892,0.0
49174.0,STARLINK-3047,PAYLOAD,2024-03-20 22:28:43,15.03139493,0.0003366,69.9969,284.1105,235.2498,124.8347,0.00052778,7.052e-05,0.0,0 STARLINK-3047,1 49174U 21082AW  24080.93661600  .00007052  00000-0  52778-3 0  9999,2 49174  69.9969 284.1105 0003366 235.2498 124.8347 15.03139493140043,6935.36,95.799,559.559,554.89,0.0
49174.0,STARLINK-3047,PAYLOAD,2024-03-21 14:26:59,15.03148229,0.0003243,69.9968,282.4198,235.4644,124.6211,0.00053279,7.122e-05,0.0,0 STARLINK-3047,1 49174U 21082AW  24081.60207896  .00007122  00000-0  53279-3 0  9992,2 49174  69.9968 282.4198 0003243 235.4644 124.6211 15.03148229140140,6935.333,95.799,559.447,554.949,0.0
49174.0,STARLINK-3047,PAYLOAD,2024-03-21 22:26:07,15.03155129,0.0003177,69.9966,281.5742,235.8353,124.2508,0.00063291,8.482e-05,0.0,0 STARLINK-3047,1 49174U 21082AW  24081.93480844  .00008482  00000-0  63291-3 0  9999,2 49174  69.9966 281.5742 0003177 235.8353 124.2508 15.03155129140197,6935.312,95.798,559.38,554.973,0.0
49174.0,STARLINK-3047,PAYLOAD,2024-03-22 14:24:22,15.03163554,0.000314,69.9964,279.8833,235.2185,124.8682,0.00053982,7.22e-05,0.0,0 STARLINK-3047,1 49174U 21082AW  24082.60026436  .00007220  00000-0  53982-3 0  9992,2 49174  69.9964 279.8833 0003140 235.2185 124.8682 15.03163554140294,6935.286,95.798,559.328,554.973,0.0
49174.0,STARLINK-3047,PAYLOAD,2024-03-22 22:23:30,15.03167362,0.0003134,69.9965,279.0379,235.5101,124.5765,0.00049436,6.604e-05,0.0,0 STARLINK-3047,1 49174U 21082AW  24082.93299076  .00006604  00000-0  49436-3 0  9994,2 49174  69.9965 279.0379 0003134 235.5101 124.5765 15.03167362140342,6935.274,95.798,559.312,554.965,0.0
49174.0,STARLINK-3047,PAYLOAD,2024-03-22 23:59:19,15.03168594,0.0003137,69.9964,278.8687,235.354,124.7327,0.00049949,6.674e-05,0.0,0 STARLINK-3047,1 49174U 21082AW  24082.99953582  .00006674  00000-0  49949-3 0  9995,2 49174  69.9964 278.8687 0003137 235.3540 124.7327 15.03168594140353,6935.27,95.798,559.311,554.959,0.0
49174.0,STARLINK-3047,PAYLOAD,2024-03-23 22:20:52,15.03188607,0.0003147,69.9962,276.5013,236.9328,123.1531,0.0006747,9.057e-05,0.0,0 STARLINK-3047,1 49174U 21082AW  24083.93116045  .00009057  00000-0  67470-3 0  9992,2 49174  69.9962 276.5013 0003147 236.9328 123.1531 15.03188607140493,6935.209,95.796,559.256,554.891,0.0
49174.0,STARLINK-3047,PAYLOAD,2024-03-24 12:43:16,15.03216223,0.0002664,69.9964,274.9765,230.155,129.9378,0.0012871,0.00017399,0.0,0 STARLINK-3047,1 49174U 21082AW  24084.53005456  .00017399  00000-0  12871-2 0  9994,2 49174  69.9964 274.9765 0002664 230.1550 129.9378 15.03216223140586,6935.124,95.795,558.836,555.141,0.0
49174.0,STARLINK-3047,PAYLOAD,2024-03-24 14:19:06,15.03204669,0.0003022,69.9959,274.8074,235.4034,124.6842,0.00080345,0.00010811,0.0,0 STARLINK-3047,1 49174U 21082AW  24084.59659934  .00010811  00000-0  80345-3 0  9990,2 49174  69.9959 274.8074 0003022 235.4034 124.6842 15.03204669140596,6935.159,95.795,559.12,554.928,0.0
49174.0,STARLINK-3047,PAYLOAD,2024-03-24 22:18:12,15.03223571,0.0003178,69.9956,273.9631,238.3624,121.7228,0.0016285,0.00022059,0.0,0 STARLINK-3047,1 49174U 21082AW  24084.92931627  .00022059  00000-0  16285-2 0  9997,2 49174  69.9956 273.9631 0003178 238.3624 121.7228 15.03223571140646,6935.101,95.794,559.17,554.762,0.0
49174.0,STARLINK-3047,PAYLOAD,2024-03-25 12:40:36,15.03228124,0.0003394,69.9962,272.4416,234.7102,125.3742,0.0014031,0.00018987,0.0,0 STARLINK-3047,1 49174U 21082AW  24085.52820267  .00018987  00000-0  14031-2 0  9993,2 49174  69.9962 272.4416 0003394 234.7102 125.3742 15.03228124140739,6935.087,95.794,559.306,554.598,0.0
49174.0,STARLINK-3047,PAYLOAD,2024-03-25 22:15:32,15.03235276,0.0002956,69.9971,271.4266,234.7581,125.3304,0.0010604,0.00014318,0.0,0 STARLINK-3047,1 49174U 21082AW  24085.92745933  .00014318  00000-0  10604-2 0  9999,2 49174  69.9971 271.4266 0002956 234.7581 125.3304 15.03235276140791,6935.065,95.793,558.98,554.88,0.0
49174.0,STARLINK-3047,PAYLOAD,2024-03-26 14:13:44,15.03242581,0.0003103,69.9968,269.7373,238.5118,121.5741,0.00062783,8.432e-05,0.0,0 STARLINK-3047,1 49174U 21082AW  24086.59287924  .00008432  00000-0  62783-3 0  9990,2 49174  69.9968 269.7373 0003103 238.5118 121.5741 15.03242581140890,6935.043,95.793,559.059,554.756,0.0
49174.0,STARLINK-3047,PAYLOAD,2024-03-26 20:37:01,15.03245117,0.0003049,69.9965,269.0609,238.4759,121.6105,0.00054388,7.291e-05,0.0,0 STARLINK-3047,1 49174U 21082AW  24086.85904660  .00007291  00000-0  54388-3 0  9996,2 49174  69.9965 269.0609 0003049 238.4759 121.6105 15.03245117140939,6935.035,95.793,559.014,554.785,0.0
49174.0,STARLINK-3047,PAYLOAD,2024-03-26 22:12:50,15.03246707,0.0003043,69.9965,268.8918,238.4716,121.6148,0.00056112,7.526e-05,0.0,0 STARLINK-3047,1 49174U 21082AW  24086.92558818  .00007526  00000-0  56112-3 0  9992,2 49174  69.9965 268.8918 0003043 238.4716 121.6148 15.03246707140940,6935.03,95.793,559.005,554.785,0.0
49174.0,STARLINK-3047,PAYLOAD,2024-03-27 14:11:02,15.0325528,0.0003001,69.9969,267.2008,238.4179,121.669,0.00046492,6.219e-05,0.0,0 STARLINK-3047,1 49174U 21082AW  24087.59100273  .00006219  00000-0  46492-3 0  9992,2 49174  69.9969 267.2008 0003001 238.4179 121.6690 15.03255280141044,6935.003,95.792,558.95,554.787,0.0
49174.0,STARLINK-3047,PAYLOAD,2024-03-27 22:10:08,15.03259978,0.0002967,69.997,266.3555,238.0607,122.0267,0.00047446,6.35e-05,0.0,0 STARLINK-3047,1 49174U 21082AW  24087.92370869  .00006350  00000-0  47446-3 0  9995,2 49174  69.9970 266.3555 0002967 238.0607 122.0267 15.03259978141093,6934.989,95.792,558.912,554.796,0.0
49174.0,STARLINK-3047,PAYLOAD,2024-03-28 04:33:24,15.03263664,0.0002942,69.9971,265.6791,237.866,122.2216,0.00046818,6.265e-05,0.0,0 STARLINK-3047,1 49174U 21082AW  24088.18987263  .00006265  00000-0  46818-3 0  9993,2 49174  69.9971 265.6791 0002942 237.8660 122.2216 15.03263664141135,6934.978,95.792,558.883,554.802,0.0
49174.0,STARLINK-3047,PAYLOAD,2024-03-28 12:32:30,15.03270063,0.0002922,69.997,264.8334,238.7065,121.3811,0.00051261,6.87e-05,0.0,0 STARLINK-3047,1 49174U 21082AW  24088.52257606  .00006870  00000-0  51261-3 0  9992,2 49174  69.9970 264.8334 0002922 238.7065 121.3811 15.03270063141182,6934.958,95.791,558.849,554.797,0.0
49174.0,STARLINK-3047,PAYLOAD,2024-03-28 22:07:25,15.03275823,0.0002874,69.997,263.8186,239.5667,120.5211,0.00051993,6.971e-05,0.0,0 STARLINK-3047,1 49174U 21082AW  24088.92181926  .00006971  00000-0  51993-3 0  9991,2 49174  69.9970 263.8186 0002874 239.5667 120.5211 15.03275823141240,6934.94,95.791,558.798,554.812,0.0
49174.0,STARLINK-3047,PAYLOAD,2024-03-29 12:29:46,15.0328634,0.0002836,69.997,262.2966,239.9904,120.0976,0.00060171,8.086e-05,0.0,0 STARLINK-3047,1 49174U 21082AW  24089.52068110  .00008086  00000-0  60171-3 0  9994,2 49174  69.9970 262.2966 0002836 239.9904 120.0976 15.03286340141334,6934.908,95.79,558.74,554.806,0.0
49174.0,STARLINK-3047,PAYLOAD,2024-03-29 22:04:40,15.0329439,0.0002745,69.9971,261.2818,241.395,118.6936,0.00063285,8.512e-05,0.0,0 STARLINK-3047,1 49174U 21082AW  24089.91991898  .00008512  00000-0  63285-3 0  9998,2 49174  69.9971 261.2818 0002745 241.3950 118.6936 15.03294390141396,6934.883,95.79,558.652,554.845,0.0
49174.0,STARLINK-3047,PAYLOAD,2024-03-30 14:02:51,15.0330094,0.0002686,69.9967,259.5905,239.9844,120.1051,0.00050248,6.738e-05,0.0,0 STARLINK-3047,1 49174U 21082AW  24090.58531454  .00006738  00000-0  50248-3 0  9994,2 49174  69.9967 259.5905 0002686 239.9844 120.1051 15.03300940141493,6934.863,95.789,558.591,554.865,0.0
49174.0,STARLINK-3047,PAYLOAD,2024-03-30 20:26:07,15.033066,0.0002766,69.9965,258.9135,235.8518,124.2382,0.00064106,8.627e-05,0.0,0 STARLINK-3047,1 49174U 21082AW  24090.85147174  .00008627  00000-0  64106-3 0  9993,2 49174  69.9965 258.9135 0002766 235.8518 124.2382 15.03306600141537,6934.846,95.789,558.629,554.792,0.0
49174.0,STARLINK-3047,PAYLOAD,2024-03-31 14:00:05,15.03317949,0.0002742,69.9974,257.0547,238.5735,121.5158,0.0006012,8.086e-05,0.0,0 STARLINK-3047,1 49174U 21082AW  24091.58339782  .00008086  00000-0  60120-3 0  9993,2 49174  69.9974 257.0547 0002742 238.5735 121.5158 15.03317949141640,6934.811,95.788,558.577,554.774,0.0
49174.0,STARLINK-3047,PAYLOAD,2024-03-31 20:23:21,15.03322243,0.0002738,69.9974,256.3782,239.0475,121.0418,0.00060573,8.149e-05,0.0,0 STARLINK-3047,1 49174U 21082AW  24091.84955170  .00008149  00000-0  60573-3 0  9999,2 49174  69.9974 256.3782 0002738 239.0475 121.0418 15.03322243141686,6934.798,95.788,558.561,554.764,0.0
49174.0,STARLINK-3047,PAYLOAD,2024-04-01 04:22:25,15.03327751,0.0002709,69.9974,255.5326,239.0961,120.9934,0.00058689,7.893e-05,0.0,0 STARLINK-3047,1 49174U 21082AW  24092.18224271  .00007893  00000-0  58689-3 0  9998,2 49174  69.9974 255.5326 0002709 239.0961 120.9934 15.03327751141735,6934.781,95.787,558.524,554.767,0.0
